[{"OBJECT_NAME":"STARLINK-35337","OBJECT_ID":"2025-221J","EPOCH":"2026-03-09T08:37:32.758752","MEAN_MOTION":15.30210838,"ECCENTRICITY":0.00010014,"INCLINATION":53.1594,"RA_OF_ASC_NODE":89.8199,"ARG_OF_PERICENTER":89.3245,"MEAN_ANOMALY":270.787,"EPHEMERIS_TYPE":0,"CLASSIFICATION_TYPE":"U","NORAD_CAT_ID":65831,"ELEMENT_SET_NO":999,"REV_AT_EPOCH":2603,"BSTAR":0.00079446404,"MEAN_MOTION_DOT":0.00023252,"MEAN_MOTION_DDOT":0},{"OBJECT_NAME":"OBJECT L","OBJECT_ID":"2024-024L","EPOCH":"2026-03-09T22:36:05.522976","MEAN_MOTION":15.29373491,"ECCENTRICITY":0.00073185,"INCLINATION":97.3169,"RA_OF_ASC_NODE":137.7038,"ARG_OF_PERICENTER":167.6369,"MEAN_ANOMALY":192.5052,"EPHEMERIS_TYPE":0,"CLASSIFICATION_TYPE":"U","NORAD_CAT_ID":58927,"ELEMENT_SET_NO":999,"REV_AT_EPOCH":9318,"BSTAR":0.00043092344,"MEAN_MOTION_DOT":0.00012217,"MEAN_MOTION_DDOT":0}]
